{"type": "FeatureCollection", "features": [ {"type": "Feature", "properties": {"norad_id": 66525, "name": "STARLINK-35975", "group": "last-30-days", "lat": 26.96736289325047, "lon": 175.10302890052205, "alt_km": 440.31742823973036, "timestamp": "2025-12-17T04:57:43.202278+00:00", "meta": {"OBJECT_NAME": "STARLINK-35975", "OBJECT_ID": "2025-265K", "EPOCH": "2025-12-16T22:00:03.000096", "MEAN_MOTION": 15.40670988, "ECCENTRICITY": 0.00012139, "INCLINATION": 43.0009, "RA_OF_ASC_NODE": 29.8678, "ARG_OF_PERICENTER": 263.9909, "MEAN_ANOMALY": 63.6154, "EPHEMERIS_TYPE": 0, "CLASSIFICATION_TYPE": "U", "NORAD_CAT_ID": 66525, "ELEMENT_SET_NO": 999, "REV_AT_EPOCH": 566, "BSTAR": 0.00050580389, "MEAN_MOTION_DOT": 0.00020862, "MEAN_MOTION_DDOT": 0}, "tle": {"line1": "1 66525U 25265K   25350.91670139  .00020862  00000+0  50580-3 0  9993", "line2": "2 66525  43.0009  29.8678 0001213 263.9909  63.6154 15.40670988  5667"}}, "geometry": {"type": "Point", "coordinates": [175.10302890052205, 26.96736289325047]}}, {"type": "Feature", "properties": {"norad_id": 66526, "name": "STARLINK-35932", "group": "last-30-days", "lat": -30.487771072391226, "lon": -112.83852225649088, "alt_km": 444.27246525905593, "timestamp": "2025-12-17T04:57:43.202288+00:00", "meta": {"OBJECT_NAME": "STARLINK-35932", "OBJECT_ID": "2025-265L", "EPOCH": "2025-12-16T12:25:54.874272", "MEAN_MOTION": 15.42222217, "ECCENTRICITY": 0.00027158, "INCLINATION": 42.9983, "RA_OF_ASC_NODE": 31.9526, "ARG_OF_PERICENTER": 335.1664, "MEAN_ANOMALY": 24.9062, "EPHEMERIS_TYPE": 0, "CLASSIFICATION_TYPE": "U", "NORAD_CAT_ID": 66526, "ELEMENT_SET_NO": 999, "REV_AT_EPOCH": 434, "BSTAR": -0.0069793418, "MEAN_MOTION_DOT": -0.00295574, "MEAN_MOTION_DDOT": 0}, "tle": {"line1": "1 66526U 25265L   25350.51799623 -.00295574  00000+0 -69793-2 0  9991", "line2": "2 66526  42.9983  31.9526 0002715 335.1664  24.9062 15.42222217  4343"}}, "geometry": {"type": "Point", "coordinates": [-112.83852225649088, -30.487771072391226]}}, {"type": "Feature", "properties": {"norad_id": 66527, "name": "STARLINK-35935", "group": "last-30-days", "lat": -41.17176208069801, "lon": -41.96134897705084, "alt_km": 416.3314932363701, "timestamp": "2025-12-17T04:57:43.202298+00:00", "meta": {"OBJECT_NAME": "STARLINK-35935", "OBJECT_ID": "2025-265M", "EPOCH": "2025-12-16T12:16:45.467040", "MEAN_MOTION": 15.50605531, "ECCENTRICITY": 0.0002832, "INCLINATION": 43.001, "RA_OF_ASC_NODE": 31.9059, "ARG_OF_PERICENTER": 248.887, "MEAN_ANOMALY": 111.1687, "EPHEMERIS_TYPE": 0, "CLASSIFICATION_TYPE": "U", "NORAD_CAT_ID": 66527, "ELEMENT_SET_NO": 999, "REV_AT_EPOCH": 434, "BSTAR": 0.0011934324, "MEAN_MOTION_DOT": 0.00070376, "MEAN_MOTION_DDOT": 0}, "tle": {"line1": "1 66527U 25265M   25350.51163735  .00070376  00000+0  11934-2 0  9994", "line2": "2 66527  43.0010  31.9059 0002832 248.8870 111.1687 15.50605531  4342"}}, "geometry": {"type": "Point", "coordinates": [-41.96134897705084, -41.17176208069801]}}, {"type": "Feature", "properties": {"norad_id": 66528, "name": "STARLINK-35928", "group": "last-30-days", "lat": -41.228007684064494, "lon": -42.26951548655419, "alt_km": 417.2141580094785, "timestamp": "2025-12-17T04:57:43.202308+00:00", "meta": {"OBJECT_NAME": "STARLINK-35928", "OBJECT_ID": "2025-265N", "EPOCH": "2025-12-16T16:00:03.999744", "MEAN_MOTION": 15.50522986, "ECCENTRICITY": 0.0001582, "INCLINATION": 43.0011, "RA_OF_ASC_NODE": 31.0004, "ARG_OF_PERICENTER": 273.7707, "MEAN_ANOMALY": 232.9641, "EPHEMERIS_TYPE": 0, "CLASSIFICATION_TYPE": "U", "NORAD_CAT_ID": 66528, "ELEMENT_SET_NO": 999, "REV_AT_EPOCH": 562, "BSTAR": 0.0012241896, "MEAN_MOTION_DOT": 0.00071995, "MEAN_MOTION_DDOT": 0}, "tle": {"line1": "1 66528U 25265N   25350.66671296  .00071995  00000+0  12242-2 0  9998", "line2": "2 66528  43.0011  31.0004 0001582 273.7707 232.9641 15.50522986  5628"}}, "geometry": {"type": "Point", "coordinates": [-42.26951548655419, -41.228007684064494]}}, {"type": "Feature", "properties": {"norad_id": 66529, "name": "STARLINK-35933", "group": "last-30-days", "lat": 42.02534225941016, "lon": 133.02953696279505, "alt_km": 438.3653050822859, "timestamp": "2025-12-17T04:57:43.202318+00:00", "meta": {"OBJECT_NAME": "STARLINK-35933", "OBJECT_ID": "2025-265P", "EPOCH": "2025-12-16T22:00:03.000096", "MEAN_MOTION": 15.40633758, "ECCENTRICITY": 0.00013514, "INCLINATION": 43.001, "RA_OF_ASC_NODE": 29.958, "ARG_OF_PERICENTER": 255.8211, "MEAN_ANOMALY": 34.4566, "EPHEMERIS_TYPE": 0, "CLASSIFICATION_TYPE": "U", "NORAD_CAT_ID": 66529, "ELEMENT_SET_NO": 999, "REV_AT_EPOCH": 566, "BSTAR": 0.0006013683, "MEAN_MOTION_DOT": 0.00024844, "MEAN_MOTION_DDOT": 0}, "tle": {"line1": "1 66529U 25265P   25350.91670139  .00024844  00000+0  60137-3 0  9990", "line2": "2 66529  43.0010  29.9580 0001351 255.8211  34.4566 15.40633758  5662"}}, "geometry": {"type": "Point", "coordinates": [133.02953696279505, 42.02534225941016]}}, {"type": "Feature", "properties": {"norad_id": 66530, "name": "STARLINK-35961", "group": "last-30-days", "lat": 33.543189084351646, "lon": 162.87424333435746, "alt_km": 439.4720777666889, "timestamp": "2025-12-17T04:57:43.202328+00:00", "meta": {"OBJECT_NAME": "STARLINK-35961", "OBJECT_ID": "2025-265Q", "EPOCH": "2025-12-16T22:00:03.000096", "MEAN_MOTION": 15.40665601, "ECCENTRICITY": 0.00014254, "INCLINATION": 43.0009, "RA_OF_ASC_NODE": 29.8974, "ARG_OF_PERICENTER": 260.453, "MEAN_ANOMALY": 54.7229, "EPHEMERIS_TYPE": 0, "CLASSIFICATION_TYPE": "U", "NORAD_CAT_ID": 66530, "ELEMENT_SET_NO": 999, "REV_AT_EPOCH": 566, "BSTAR": 0.00049558588, "MEAN_MOTION_DOT": 0.0002043, "MEAN_MOTION_DDOT": 0}, "tle": {"line1": "1 66530U 25265Q   25350.91670139  .00020430  00000+0  49559-3 0  9994", "line2": "2 66530  43.0009  29.8974 0001425 260.4530  54.7229 15.40665601  5669"}}, "geometry": {"type": "Point", "coordinates": [162.87424333435746, 33.543189084351646]}}, {"type": "Feature", "properties": {"norad_id": 66531, "name": "STARLINK-35960", "group": "last-30-days", "lat": 19.456625344129407, "lon": -174.11235456546837, "alt_km": 441.2767449657067, "timestamp": "2025-12-17T04:57:43.202338+00:00", "meta": {"OBJECT_NAME": "STARLINK-35960", "OBJECT_ID": "2025-265R", "EPOCH": "2025-12-16T22:00:03.000096", "MEAN_MOTION": 15.40669342, "ECCENTRICITY": 0.00013803, "INCLINATION": 43.0011, "RA_OF_ASC_NODE": 29.8365, "ARG_OF_PERICENTER": 254.5041, "MEAN_ANOMALY": 85.5449, "EPHEMERIS_TYPE": 0, "CLASSIFICATION_TYPE": "U", "NORAD_CAT_ID": 66531, "ELEMENT_SET_NO": 999, "REV_AT_EPOCH": 566, "BSTAR": 0.00052151885, "MEAN_MOTION_DOT": 0.00021521, "MEAN_MOTION_DDOT": 0}, "tle": {"line1": "1 66531U 25265R   25350.91670139  .00021521  00000+0  52152-3 0  9990", "line2": "2 66531  43.0011  29.8365 0001380 254.5041  85.5449 15.40669342  5660"}}, "geometry": {"type": "Point", "coordinates": [-174.11235456546837, 19.456625344129407]}}, {"type": "Feature", "properties": {"norad_id": 66532, "name": "STARLINK-35914", "group": "last-30-days", "lat": 2.967175573524153, "lon": -155.08449270767244, "alt_km": 443.3561797048642, "timestamp": "2025-12-17T04:57:43.202348+00:00", "meta": {"OBJECT_NAME": "STARLINK-35914", "OBJECT_ID": "2025-265S", "EPOCH": "2025-12-16T22:00:03.000096", "MEAN_MOTION": 15.4066984, "ECCENTRICITY": 0.00015666, "INCLINATION": 43.001, "RA_OF_ASC_NODE": 29.7758, "ARG_OF_PERICENTER": 257.4608, "MEAN_ANOMALY": 107.4701, "EPHEMERIS_TYPE": 0, "CLASSIFICATION_TYPE": "U", "NORAD_CAT_ID": 66532, "ELEMENT_SET_NO": 999, "REV_AT_EPOCH": 566, "BSTAR": 0.0005412055, "MEAN_MOTION_DOT": 0.00022347, "MEAN_MOTION_DDOT": 0}, "tle": {"line1": "1 66532U 25265S   25350.91670139  .00022347  00000+0  54121-3 0  9996", "line2": "2 66532  43.0010  29.7758 0001566 257.4608 107.4701 15.40669840  5660"}}, "geometry": {"type": "Point", "coordinates": [-155.08449270767244, 2.967175573524153]}}, {"type": "Feature", "properties": {"norad_id": 66533, "name": "STARLINK-35707", "group": "last-30-days", "lat": -21.765674796076244, "lon": -126.61605955590058, "alt_km": 445.5389653954371, "timestamp": "2025-12-17T04:57:43.202358+00:00", "meta": {"OBJECT_NAME": "STARLINK-35707", "OBJECT_ID": "2025-265T", "EPOCH": "2025-12-16T22:00:03.000096", "MEAN_MOTION": 15.4067791, "ECCENTRICITY": 0.00013459, "INCLINATION": 43.0009, "RA_OF_ASC_NODE": 29.6857, "ARG_OF_PERICENTER": 257.4507, "MEAN_ANOMALY": 144.7794, "EPHEMERIS_TYPE": 0, "CLASSIFICATION_TYPE": "U", "NORAD_CAT_ID": 66533, "ELEMENT_SET_NO": 999, "REV_AT_EPOCH": 566, "BSTAR": 0.00058808723, "MEAN_MOTION_DOT": 0.00024322, "MEAN_MOTION_DDOT": 0}, "tle": {"line1": "1 66533U 25265T   25350.91670139  .00024322  00000+0  58809-3 0  9999", "line2": "2 66533  43.0009  29.6857 0001345 257.4507 144.7794 15.40677910  5664"}}, "geometry": {"type": "Point", "coordinates": [-126.61605955590058, -21.765674796076244]}}, {"type": "Feature", "properties": {"norad_id": 66534, "name": "STARLINK-35976", "group": "last-30-days", "lat": -42.53796058248604, "lon": -72.16133817947413, "alt_km": 444.7350348056043, "timestamp": "2025-12-17T04:57:43.202367+00:00", "meta": {"OBJECT_NAME": "STARLINK-35976", "OBJECT_ID": "2025-265U", "EPOCH": "2025-12-16T22:00:03.000096", "MEAN_MOTION": 15.43149075, "ECCENTRICITY": 0.00011797, "INCLINATION": 43.0004, "RA_OF_ASC_NODE": 29.5703, "ARG_OF_PERICENTER": 289.2828, "MEAN_ANOMALY": 161.0558, "EPHEMERIS_TYPE": 0, "CLASSIFICATION_TYPE": "U", "NORAD_CAT_ID": 66534, "ELEMENT_SET_NO": 999, "REV_AT_EPOCH": 566, "BSTAR": -0.072469547, "MEAN_MOTION_DOT": -0.02909959, "MEAN_MOTION_DDOT": 0}, "tle": {"line1": "1 66534U 25265U   25350.91670139 -.02909959  00000+0 -72470-1 0  9990", "line2": "2 66534  43.0004  29.5703 0001179 289.2828 161.0558 15.43149075  5662"}}, "geometry": {"type": "Point", "coordinates": [-72.16133817947413, -42.53796058248604]}}]}